start=new Date('2022-01-31T00:00:00.000Z').valueOf();
sats=[{"TLE_LINE2":"2 48310  53.0568 340.1617 0001577  69.6478 290.4681 15.06401677 42268","REV_AT_EPOCH":"4226","COUNTRY_CODE":"US","EPOCH":"2022-01-30T20:24:37.545984","SEMIMAJOR_AXIS":"6925.343","NORAD_CAT_ID":"48310","MEAN_ELEMENT_THEORY":"SGP4","ELEMENT_SET_NO":"999","BSTAR":"0.00010244000000","ECCENTRICITY":"0.00015770","TIME_SYSTEM":"UTC","APOAPSIS":"548.301","ARG_OF_PERICENTER":"69.6478","EPHEMERIS_TYPE":"0","DECAY_DATE":null,"INCLINATION":"53.0568","RA_OF_ASC_NODE":"340.1617","MEAN_MOTION_DOT":"0.00001245","SITE":"AFETR","GP_ID":"194983744","CENTER_NAME":"EARTH","OBJECT_TYPE":"PAYLOAD","REF_FRAME":"TEME","MEAN_MOTION":"15.06401677","PERIAPSIS":"546.116","PERIOD":"95.592","TLE_LINE1":"1 48310U 21036AL  22030.85043456  .00001245  00000-0  10244-3 0  9996","OBJECT_NAME":"STARLINK-2536","FILE":"3287903","MEAN_ANOMALY":"290.4681","OBJECT_ID":"2021-036AL","RCS_SIZE":"LARGE","LAUNCH_DATE":"2021-04-29","MEAN_MOTION_DDOT":"0.0000000000000","CLASSIFICATION_TYPE":"U"},{"LAUNCH_DATE":"2021-04-29","CLASSIFICATION_TYPE":"U","MEAN_MOTION_DDOT":"0.0000000000000","PERIAPSIS":"546.224","MEAN_MOTION":"15.06396654","OBJECT_TYPE":"PAYLOAD","CENTER_NAME":"EARTH","REF_FRAME":"TEME","RCS_SIZE":"LARGE","MEAN_ANOMALY":"291.4918","OBJECT_ID":"2021-036AM","PERIOD":"95.592","TLE_LINE1":"1 48311U 21036AM  22030.84674963  .00002178  00000-0  16510-3 0  9997","FILE":"3287903","OBJECT_NAME":"STARLINK-2534","RA_OF_ASC_NODE":"340.1971","INCLINATION":"53.0550","EPHEMERIS_TYPE":"0","APOAPSIS":"548.224","ARG_OF_PERICENTER":"68.6225","TIME_SYSTEM":"UTC","DECAY_DATE":null,"SITE":"AFETR","GP_ID":"194983495","MEAN_MOTION_DOT":"0.00002178","COUNTRY_CODE":"US","REV_AT_EPOCH":"4226","TLE_LINE2":"2 48311  53.0550 340.1971 0001444  68.6225 291.4918 15.06396654 42267","BSTAR":"0.00016510000000","ELEMENT_SET_NO":"999","ECCENTRICITY":"0.00014440","SEMIMAJOR_AXIS":"6925.359","MEAN_ELEMENT_THEORY":"SGP4","NORAD_CAT_ID":"48311","EPOCH":"2022-01-30T20:19:19.168032"},{"MEAN_MOTION_DOT":"-0.00005860","SITE":"AFETR","GP_ID":"194982243","EPHEMERIS_TYPE":"0","APOAPSIS":"548.527","ARG_OF_PERICENTER":"53.6934","TIME_SYSTEM":"UTC","DECAY_DATE":null,"RA_OF_ASC_NODE":"340.2071","INCLINATION":"53.0552","EPOCH":"2022-01-30T20:14:02.534496","ELEMENT_SET_NO":"999","BSTAR":"-0.00037512000000","ECCENTRICITY":"0.00017630","NORAD_CAT_ID":"48312","SEMIMAJOR_AXIS":"6925.441","MEAN_ELEMENT_THEORY":"SGP4","COUNTRY_CODE":"US","REV_AT_EPOCH":"4226","TLE_LINE2":"2 48312  53.0552 340.2071 0001763  53.6934 306.4217 15.06369692 42268","MEAN_MOTION_DDOT":"0.0000000000000","CLASSIFICATION_TYPE":"U","LAUNCH_DATE":"2021-04-29","TLE_LINE1":"1 48312U 21036AN  22030.84308489 -.00005860  00000-0 -37512-3 0  9993","PERIOD":"95.594","FILE":"3287903","OBJECT_NAME":"STARLINK-2061","RCS_SIZE":"LARGE","MEAN_ANOMALY":"306.4217","OBJECT_ID":"2021-036AN","OBJECT_TYPE":"PAYLOAD","CENTER_NAME":"EARTH","REF_FRAME":"TEME","PERIAPSIS":"546.085","MEAN_MOTION":"15.06369692"},{"APOAPSIS":"548.382","EPHEMERIS_TYPE":"0","ARG_OF_PERICENTER":"62.0990","TIME_SYSTEM":"UTC","DECAY_DATE":null,"RA_OF_ASC_NODE":"340.2203","INCLINATION":"53.0544","MEAN_MOTION_DOT":"0.00000885","SITE":"AFETR","GP_ID":"194982493","COUNTRY_CODE":"US","TLE_LINE2":"2 48313  53.0544 340.2203 0001692  62.0990 298.0170 15.06401050 42252","REV_AT_EPOCH":"4225","EPOCH":"2022-01-30T20:08:42.416448","ELEMENT_SET_NO":"999","BSTAR":"0.00007832900000","ECCENTRICITY":"0.00016920","SEMIMAJOR_AXIS":"6925.345","MEAN_ELEMENT_THEORY":"SGP4","NORAD_CAT_ID":"48313","LAUNCH_DATE":"2021-04-29","MEAN_MOTION_DDOT":"0.0000000000000","CLASSIFICATION_TYPE":"U","OBJECT_TYPE":"PAYLOAD","CENTER_NAME":"EARTH","REF_FRAME":"TEME","PERIAPSIS":"546.039","MEAN_MOTION":"15.06401050","TLE_LINE1":"1 48313U 21036AP  22030.83937982  .00000885  00000-0  78329-4 0  9991","PERIOD":"95.592","FILE":"3287903","OBJECT_NAME":"STARLINK-2541","RCS_SIZE":"LARGE","MEAN_ANOMALY":"298.0170","OBJECT_ID":"2021-036AP"},{"RA_OF_ASC_NODE":"340.2450","INCLINATION":"53.0550","DECAY_DATE":null,"EPHEMERIS_TYPE":"0","APOAPSIS":"548.208","ARG_OF_PERICENTER":"61.4795","TIME_SYSTEM":"UTC","GP_ID":"194983245","SITE":"AFETR","MEAN_MOTION_DOT":"0.00005932","COUNTRY_CODE":"US","TLE_LINE2":"2 48314  53.0550 340.2450 0001459  61.4795 298.6341 15.06405166 42259","REV_AT_EPOCH":"4225","BSTAR":"0.00041673000000","ELEMENT_SET_NO":"999","ECCENTRICITY":"0.00014590","SEMIMAJOR_AXIS":"6925.333","NORAD_CAT_ID":"48314","MEAN_ELEMENT_THEORY":"SGP4","EPOCH":"2022-01-30T20:03:24.716736","LAUNCH_DATE":"2021-04-29","CLASSIFICATION_TYPE":"U","MEAN_MOTION_DDOT":"0.0000000000000","PERIAPSIS":"546.187","MEAN_MOTION":"15.06405166","REF_FRAME":"TEME","OBJECT_TYPE":"PAYLOAD","CENTER_NAME":"EARTH","RCS_SIZE":"LARGE","MEAN_ANOMALY":"298.6341","OBJECT_ID":"2021-036AQ","FILE":"3287903","OBJECT_NAME":"STARLINK-2549","TLE_LINE1":"1 48314U 21036AQ  22030.83570274  .00005932  00000-0  41673-3 0  9998","PERIOD":"95.592"},{"COUNTRY_CODE":"US","REV_AT_EPOCH":"4226","TLE_LINE2":"2 48315  53.0541 339.9656 0001460  71.5804 288.5343 15.06416786 42269","EPOCH":"2022-01-30T21:33:37.418400","BSTAR":"0.00063717000000","ECCENTRICITY":"0.00014600","ELEMENT_SET_NO":"999","NORAD_CAT_ID":"48315","SEMIMAJOR_AXIS":"6925.297","MEAN_ELEMENT_THEORY":"SGP4","APOAPSIS":"548.173","ARG_OF_PERICENTER":"71.5804","EPHEMERIS_TYPE":"0","TIME_SYSTEM":"UTC","DECAY_DATE":null,"RA_OF_ASC_NODE":"339.9656","INCLINATION":"53.0541","MEAN_MOTION_DOT":"0.00009226","SITE":"AFETR","GP_ID":"194983995","OBJECT_TYPE":"PAYLOAD","CENTER_NAME":"EARTH","REF_FRAME":"TEME","MEAN_MOTION":"15.06416786","PERIAPSIS":"546.151","PERIOD":"95.591","TLE_LINE1":"1 48315U 21036AR  22030.89834975  .00009226  00000-0  63717-3 0  9999","FILE":"3287903","OBJECT_NAME":"STARLINK-2506","RCS_SIZE":"LARGE","MEAN_ANOMALY":"288.5343","OBJECT_ID":"2021-036AR","LAUNCH_DATE":"2021-04-29","MEAN_MOTION_DDOT":"0.0000000000000","CLASSIFICATION_TYPE":"U"},{"MEAN_MOTION_DDOT":"0.0000000000000","CLASSIFICATION_TYPE":"U","LAUNCH_DATE":"2021-04-29","OBJECT_NAME":"STARLINK-2507","FILE":"3287903","TLE_LINE1":"1 48316U 21036AS  22030.82832268  .00000505  00000-0  52808-4 0  9997","PERIOD":"95.592","OBJECT_ID":"2021-036AS","MEAN_ANOMALY":"292.9654","RCS_SIZE":"LARGE","REF_FRAME":"TEME","CENTER_NAME":"EARTH","OBJECT_TYPE":"PAYLOAD","PERIAPSIS":"546.012","MEAN_MOTION":"15.06400122","MEAN_MOTION_DOT":"0.00000505","GP_ID":"194982743","SITE":"AFETR","DECAY_DATE":null,"TIME_SYSTEM":"UTC","ARG_OF_PERICENTER":"67.1518","APOAPSIS":"548.415","EPHEMERIS_TYPE":"0","INCLINATION":"53.0549","RA_OF_ASC_NODE":"340.2829","EPOCH":"2022-01-30T19:52:47.079552","NORAD_CAT_ID":"48316","SEMIMAJOR_AXIS":"6925.348","MEAN_ELEMENT_THEORY":"SGP4","ELEMENT_SET_NO":"999","BSTAR":"0.00005280800000","ECCENTRICITY":"0.00017350","TLE_LINE2":"2 48316  53.0549 340.2829 0001735  67.1518 292.9654 15.06400122 42253","REV_AT_EPOCH":"4225","COUNTRY_CODE":"US"},{"SITE":"AFETR","GP_ID":"194982993","MEAN_MOTION_DOT":"0.00002173","RA_OF_ASC_NODE":"339.9967","INCLINATION":"53.0568","EPHEMERIS_TYPE":"0","APOAPSIS":"548.454","ARG_OF_PERICENTER":"69.1126","TIME_SYSTEM":"UTC","DECAY_DATE":null,"ELEMENT_SET_NO":"999","BSTAR":"0.00016480000000","ECCENTRICITY":"0.00017590","SEMIMAJOR_AXIS":"6925.371","NORAD_CAT_ID":"48317","MEAN_ELEMENT_THEORY":"SGP4","EPOCH":"2022-01-30T21:23:00.992544","COUNTRY_CODE":"US","REV_AT_EPOCH":"4226","TLE_LINE2":"2 48317  53.0568 339.9967 0001759  69.1126 291.0051 15.06392712 42263","CLASSIFICATION_TYPE":"U","MEAN_MOTION_DDOT":"0.0000000000000","LAUNCH_DATE":"2021-04-29","RCS_SIZE":"LARGE","MEAN_ANOMALY":"291.0051","OBJECT_ID":"2021-036AT","PERIOD":"95.593","TLE_LINE1":"1 48317U 21036AT  22030.89098371  .00002173  00000-0  16480-3 0  9992","FILE":"3287903","OBJECT_NAME":"STARLINK-2513","PERIAPSIS":"546.018","MEAN_MOTION":"15.06392712","OBJECT_TYPE":"PAYLOAD","CENTER_NAME":"EARTH","REF_FRAME":"TEME"},{"LAUNCH_DATE":"2021-04-29","CLASSIFICATION_TYPE":"U","MEAN_MOTION_DDOT":"0.0000000000000","PERIAPSIS":"546.113","MEAN_MOTION":"15.06397986","REF_FRAME":"TEME","CENTER_NAME":"EARTH","OBJECT_TYPE":"PAYLOAD","OBJECT_ID":"2021-036AU","MEAN_ANOMALY":"294.4786","RCS_SIZE":"LARGE","OBJECT_NAME":"STARLINK-2509","FILE":"3287903","TLE_LINE1":"1 48318U 21036AU  22030.68365493  .00002405  00000-0  18033-3 0  9996","PERIOD":"95.592","INCLINATION":"53.0570","RA_OF_ASC_NODE":"350.9126","DECAY_DATE":null,"TIME_SYSTEM":"UTC","EPHEMERIS_TYPE":"0","APOAPSIS":"548.326","ARG_OF_PERICENTER":"65.6369","GP_ID":"194983745","SITE":"AFETR","MEAN_MOTION_DOT":"0.00002405","REV_AT_EPOCH":"4209","TLE_LINE2":"2 48318  53.0570 350.9126 0001598  65.6369 294.4786 15.06397986 42099","COUNTRY_CODE":"US","SEMIMAJOR_AXIS":"6925.355","NORAD_CAT_ID":"48318","MEAN_ELEMENT_THEORY":"SGP4","ECCENTRICITY":"0.00015980","BSTAR":"0.00018033000000","ELEMENT_SET_NO":"999","EPOCH":"2022-01-30T16:24:27.785952"},{"MEAN_MOTION_DOT":"0.00003118","GP_ID":"194983496","SITE":"AFETR","DECAY_DATE":null,"TIME_SYSTEM":"UTC","EPHEMERIS_TYPE":"0","APOAPSIS":"548.240","ARG_OF_PERICENTER":"69.3203","INCLINATION":"53.0543","RA_OF_ASC_NODE":"351.2215","EPOCH":"2022-01-30T14:43:36.981408","NORAD_CAT_ID":"48319","SEMIMAJOR_AXIS":"6925.346","MEAN_ELEMENT_THEORY":"SGP4","BSTAR":"0.00022815000000","ECCENTRICITY":"0.00014860","ELEMENT_SET_NO":"999","TLE_LINE2":"2 48319  53.0543 351.2215 0001486  69.3203 290.7945 15.06400905 42088","REV_AT_EPOCH":"4208","COUNTRY_CODE":"US","MEAN_MOTION_DDOT":"0.0000000000000","CLASSIFICATION_TYPE":"U","LAUNCH_DATE":"2021-04-29","OBJECT_NAME":"STARLINK-2512","FILE":"3287903","TLE_LINE1":"1 48319U 21036AV  22030.61362247  .00003118  00000-0  22815-3 0  9999","PERIOD":"95.592","MEAN_ANOMALY":"290.7945","OBJECT_ID":"2021-036AV","RCS_SIZE":"LARGE","REF_FRAME":"TEME","CENTER_NAME":"EARTH","OBJECT_TYPE":"PAYLOAD","PERIAPSIS":"546.182","MEAN_MOTION":"15.06400905"}];
